start=new Date('2022-05-27T00:00:00.000Z').valueOf();
sats=[{"TLE_LINE2":"2 50843  53.2175 267.1393 0002379  39.2699 320.8465 15.08837093 22696","MEAN_MOTION":"15.08837093","EPOCH":"2022-05-26T19:17:57.588864","DECAY_DATE":null,"LAUNCH_DATE":"2022-01-06","REV_AT_EPOCH":"2269","CLASSIFICATION_TYPE":"U","INCLINATION":"53.2175","CENTER_NAME":"EARTH","PERIOD":"95.438","RCS_SIZE":"LARGE","TLE_LINE1":"1 50843U 22001AS  22146.80413876  .00001903  00000-0  13765-3 0  9995","REF_FRAME":"TEME","ARG_OF_PERICENTER":"39.2699","RA_OF_ASC_NODE":"267.1393","MEAN_ANOMALY":"320.8465","OBJECT_TYPE":"PAYLOAD","EPHEMERIS_TYPE":"0","OBJECT_NAME":"STARLINK-3325","MEAN_MOTION_DOT":"0.00001903","SITE":"AFETR","GP_ID":"204602422","SEMIMAJOR_AXIS":"6917.889","OBJECT_ID":"2022-001AS","TIME_SYSTEM":"UTC","ELEMENT_SET_NO":"999","MEAN_ELEMENT_THEORY":"SGP4","ECCENTRICITY":"0.00023790","APOAPSIS":"541.400","NORAD_CAT_ID":"50843","COUNTRY_CODE":"US","PERIAPSIS":"538.109","FILE":"3466037","MEAN_MOTION_DDOT":"0.0000000000000","BSTAR":"0.00013765000000"},{"OBJECT_NAME":"STARLINK-3326","OBJECT_TYPE":"PAYLOAD","EPHEMERIS_TYPE":"0","RA_OF_ASC_NODE":"266.6262","MEAN_ANOMALY":"43.2605","TLE_LINE1":"1 50844U 22001AT  22146.91667824 -.00045830  00000-0 -28804-2 0  9990","RCS_SIZE":"LARGE","ARG_OF_PERICENTER":"28.4597","REF_FRAME":"TEME","PERIOD":"95.438","CENTER_NAME":"EARTH","INCLINATION":"53.2178","CLASSIFICATION_TYPE":"U","REV_AT_EPOCH":"130","LAUNCH_DATE":"2022-01-06","EPOCH":"2022-05-26T22:00:00.999936","DECAY_DATE":null,"MEAN_MOTION":"15.08832145","TLE_LINE2":"2 50844  53.2178 266.6262 0002177  28.4597  43.2605 15.08832145  1302","MEAN_MOTION_DDOT":"0.0000000000000","BSTAR":"-0.00288040000000","COUNTRY_CODE":"US","PERIAPSIS":"538.263","FILE":"3466271","NORAD_CAT_ID":"50844","ECCENTRICITY":"0.00021770","APOAPSIS":"541.275","MEAN_ELEMENT_THEORY":"SGP4","TIME_SYSTEM":"UTC","ELEMENT_SET_NO":"999","OBJECT_ID":"2022-001AT","SEMIMAJOR_AXIS":"6917.904","GP_ID":"204628543","MEAN_MOTION_DOT":"-0.00045830","SITE":"AFETR"},{"OBJECT_ID":"2022-001AU","ELEMENT_SET_NO":"999","TIME_SYSTEM":"UTC","MEAN_ELEMENT_THEORY":"SGP4","SITE":"AFETR","MEAN_MOTION_DOT":"0.00000475","SEMIMAJOR_AXIS":"6917.884","GP_ID":"204628793","FILE":"3466271","PERIAPSIS":"538.671","COUNTRY_CODE":"US","BSTAR":"0.00004794300000","MEAN_MOTION_DDOT":"0.0000000000000","APOAPSIS":"540.827","ECCENTRICITY":"0.00015580","NORAD_CAT_ID":"50845","LAUNCH_DATE":"2022-01-06","REV_AT_EPOCH":"2150","CLASSIFICATION_TYPE":"U","INCLINATION":"53.2184","TLE_LINE2":"2 50845  53.2184 267.0747 0001558  56.5347 303.5794 15.08838748 21500","MEAN_MOTION":"15.08838748","DECAY_DATE":null,"EPOCH":"2022-05-26T19:33:51.271200","MEAN_ANOMALY":"303.5794","RA_OF_ASC_NODE":"267.0747","EPHEMERIS_TYPE":"0","OBJECT_TYPE":"PAYLOAD","OBJECT_NAME":"STARLINK-3230","CENTER_NAME":"EARTH","PERIOD":"95.438","RCS_SIZE":"LARGE","TLE_LINE1":"1 50845U 22001AU  22146.81517675  .00000475  00000-0  47943-4 0  9999","REF_FRAME":"TEME","ARG_OF_PERICENTER":"56.5347"},{"DECAY_DATE":null,"EPOCH":"2022-05-26T22:00:00.999936","MEAN_MOTION":"15.08837607","TLE_LINE2":"2 50846  53.2177 266.6241 0002421  29.9347  61.7706 15.08837607 22792","CLASSIFICATION_TYPE":"U","INCLINATION":"53.2177","REV_AT_EPOCH":"2279","LAUNCH_DATE":"2022-01-06","RCS_SIZE":"LARGE","TLE_LINE1":"1 50846U 22001AV  22146.91667824 -.00027954  00000-0 -17451-2 0  9995","ARG_OF_PERICENTER":"29.9347","REF_FRAME":"TEME","PERIOD":"95.438","CENTER_NAME":"EARTH","OBJECT_NAME":"STARLINK-3308","EPHEMERIS_TYPE":"0","OBJECT_TYPE":"PAYLOAD","MEAN_ANOMALY":"61.7706","RA_OF_ASC_NODE":"266.6241","GP_ID":"204602981","SEMIMAJOR_AXIS":"6917.888","SITE":"AFETR","MEAN_MOTION_DOT":"-0.00027954","MEAN_ELEMENT_THEORY":"SGP4","ELEMENT_SET_NO":"999","TIME_SYSTEM":"UTC","OBJECT_ID":"2022-001AV","NORAD_CAT_ID":"50846","ECCENTRICITY":"0.00024210","APOAPSIS":"541.428","BSTAR":"-0.00174510000000","MEAN_MOTION_DDOT":"0.0000000000000","FILE":"3466040","PERIAPSIS":"538.078","COUNTRY_CODE":"US"},{"EPHEMERIS_TYPE":"0","OBJECT_TYPE":"PAYLOAD","MEAN_ANOMALY":"276.3467","RA_OF_ASC_NODE":"266.8778","OBJECT_NAME":"STARLINK-3319","PERIOD":"95.438","CENTER_NAME":"EARTH","RCS_SIZE":"LARGE","TLE_LINE1":"1 50847U 22001AW  22146.85936012  .00003816  00000-0  25782-3 0  9993","ARG_OF_PERICENTER":"83.7682","REF_FRAME":"TEME","REV_AT_EPOCH":"2150","LAUNCH_DATE":"2022-01-06","INCLINATION":"53.2163","CLASSIFICATION_TYPE":"U","MEAN_MOTION":"15.08829281","TLE_LINE2":"2 50847  53.2163 266.8778 0001384  83.7682 276.3467 15.08829281 21507","DECAY_DATE":null,"EPOCH":"2022-05-26T20:37:28.714368","FILE":"3466271","COUNTRY_CODE":"US","PERIAPSIS":"538.821","BSTAR":"0.00025782000000","MEAN_MOTION_DDOT":"0.0000000000000","APOAPSIS":"540.736","ECCENTRICITY":"0.00013840","NORAD_CAT_ID":"50847","OBJECT_ID":"2022-001AW","MEAN_ELEMENT_THEORY":"SGP4","ELEMENT_SET_NO":"999","TIME_SYSTEM":"UTC","GP_ID":"204629296","SEMIMAJOR_AXIS":"6917.913","SITE":"AFETR","MEAN_MOTION_DOT":"0.00003816"},{"REV_AT_EPOCH":"2282","LAUNCH_DATE":"2022-01-06","INCLINATION":"53.2176","CLASSIFICATION_TYPE":"U","MEAN_MOTION":"15.08836614","TLE_LINE2":"2 50848  53.2176 266.6222 0002008  34.5541  77.1432 15.08836614 22829","DECAY_DATE":null,"EPOCH":"2022-05-26T22:00:00.999936","EPHEMERIS_TYPE":"0","OBJECT_TYPE":"PAYLOAD","MEAN_ANOMALY":"77.1432","RA_OF_ASC_NODE":"266.6222","OBJECT_NAME":"STARLINK-3315","PERIOD":"95.438","CENTER_NAME":"EARTH","RCS_SIZE":"LARGE","TLE_LINE1":"1 50848U 22001AX  22146.91667824 -.00025907  00000-0 -16156-2 0  9994","ARG_OF_PERICENTER":"34.5541","REF_FRAME":"TEME","OBJECT_ID":"2022-001AX","MEAN_ELEMENT_THEORY":"SGP4","ELEMENT_SET_NO":"999","TIME_SYSTEM":"UTC","GP_ID":"204602460","SEMIMAJOR_AXIS":"6917.891","SITE":"AFETR","MEAN_MOTION_DOT":"-0.00025907","FILE":"3466039","PERIAPSIS":"538.367","COUNTRY_CODE":"US","BSTAR":"-0.00161560000000","MEAN_MOTION_DDOT":"0.0000000000000","APOAPSIS":"541.145","ECCENTRICITY":"0.00020080","NORAD_CAT_ID":"50848"},{"EPOCH":"2022-05-26T22:00:00.999936","DECAY_DATE":null,"MEAN_MOTION":"15.08830280","TLE_LINE2":"2 50849  53.2175 266.6255 0002423  29.1235  22.6017 15.08830280 22711","CLASSIFICATION_TYPE":"U","INCLINATION":"53.2175","REV_AT_EPOCH":"2271","LAUNCH_DATE":"2022-01-06","TLE_LINE1":"1 50849U 22001AY  22146.91667824 -.00034911  00000-0 -21865-2 0  9993","RCS_SIZE":"LARGE","ARG_OF_PERICENTER":"29.1235","REF_FRAME":"TEME","PERIOD":"95.438","CENTER_NAME":"EARTH","OBJECT_NAME":"STARLINK-3311","OBJECT_TYPE":"PAYLOAD","EPHEMERIS_TYPE":"0","RA_OF_ASC_NODE":"266.6255","MEAN_ANOMALY":"22.6017","SEMIMAJOR_AXIS":"6917.910","GP_ID":"204602488","MEAN_MOTION_DOT":"-0.00034911","SITE":"AFETR","MEAN_ELEMENT_THEORY":"SGP4","TIME_SYSTEM":"UTC","ELEMENT_SET_NO":"999","OBJECT_ID":"2022-001AY","NORAD_CAT_ID":"50849","ECCENTRICITY":"0.00024230","APOAPSIS":"541.451","MEAN_MOTION_DDOT":"0.0000000000000","BSTAR":"-0.00218650000000","PERIAPSIS":"538.099","COUNTRY_CODE":"US","FILE":"3466047"},{"MEAN_MOTION_DDOT":"0.0000000000000","BSTAR":"-0.00533730000000","PERIAPSIS":"443.258","COUNTRY_CODE":"US","FILE":"3466041","NORAD_CAT_ID":"50850","ECCENTRICITY":"0.00009870","APOAPSIS":"444.605","MEAN_ELEMENT_THEORY":"SGP4","TIME_SYSTEM":"UTC","ELEMENT_SET_NO":"999","OBJECT_ID":"2022-001AZ","GP_ID":"204602997","SEMIMAJOR_AXIS":"6822.067","MEAN_MOTION_DOT":"-0.00215772","SITE":"AFETR","OBJECT_NAME":"STARLINK-3312","OBJECT_TYPE":"PAYLOAD","EPHEMERIS_TYPE":"0","RA_OF_ASC_NODE":"229.1089","MEAN_ANOMALY":"276.2793","RCS_SIZE":"LARGE","TLE_LINE1":"1 50850U 22001AZ  22146.84861977 -.00215772  00000-0 -53373-2 0  9997","ARG_OF_PERICENTER":"83.8325","REF_FRAME":"TEME","PERIOD":"93.462","CENTER_NAME":"EARTH","CLASSIFICATION_TYPE":"U","INCLINATION":"53.2130","REV_AT_EPOCH":"2331","LAUNCH_DATE":"2022-01-06","EPOCH":"2022-05-26T20:22:00.748128","DECAY_DATE":null,"MEAN_MOTION":"15.40738059","TLE_LINE2":"2 50850  53.2130 229.1089 0000987  83.8325 276.2793 15.40738059 23315"},{"GP_ID":"204629796","SEMIMAJOR_AXIS":"6917.917","SITE":"AFETR","MEAN_MOTION_DOT":"0.00000567","OBJECT_ID":"2022-001BA","MEAN_ELEMENT_THEORY":"SGP4","ELEMENT_SET_NO":"999","TIME_SYSTEM":"UTC","ECCENTRICITY":"0.00024680","APOAPSIS":"541.489","NORAD_CAT_ID":"50851","FILE":"3466271","COUNTRY_CODE":"US","PERIAPSIS":"538.074","BSTAR":"0.00005376800000","MEAN_MOTION_DDOT":"0.0000000000000","MEAN_MOTION":"15.08828116","TLE_LINE2":"2 50851  53.2190 267.0281 0002468  32.7411 327.3733 15.08828116 21501","DECAY_DATE":null,"EPOCH":"2022-05-26T19:49:45.884064","REV_AT_EPOCH":"2150","LAUNCH_DATE":"2022-01-06","INCLINATION":"53.2190","CLASSIFICATION_TYPE":"U","PERIOD":"95.438","CENTER_NAME":"EARTH","RCS_SIZE":"LARGE","TLE_LINE1":"1 50851U 22001BA  22146.82622551  .00000567  00000-0  53768-4 0  9991","ARG_OF_PERICENTER":"32.7411","REF_FRAME":"TEME","EPHEMERIS_TYPE":"0","OBJECT_TYPE":"PAYLOAD","MEAN_ANOMALY":"327.3733","RA_OF_ASC_NODE":"267.0281","OBJECT_NAME":"STARLINK-3314"},{"MEAN_MOTION":"15.08832165","TLE_LINE2":"2 51104  53.2141  16.6500 0001692  58.9500 301.1658 15.08832165 20120","DECAY_DATE":null,"EPOCH":"2022-05-26T21:52:57.651168","REV_AT_EPOCH":"2012","LAUNCH_DATE":"2022-01-19","INCLINATION":"53.2141","CLASSIFICATION_TYPE":"U","PERIOD":"95.438","CENTER_NAME":"EARTH","TLE_LINE1":"1 51104U 22005A   22146.91177837 -.00000853  00000-0 -35488-4 0  9998","REF_FRAME":"TEME","RCS_SIZE":"LARGE","ARG_OF_PERICENTER":"58.9500","EPHEMERIS_TYPE":"0","OBJECT_TYPE":"PAYLOAD","MEAN_ANOMALY":"301.1658","RA_OF_ASC_NODE":"16.6500","OBJECT_NAME":"STARLINK-3366","GP_ID":"204628566","SEMIMAJOR_AXIS":"6917.904","SITE":"AFETR","MEAN_MOTION_DOT":"-0.00000853","OBJECT_ID":"2022-005A","MEAN_ELEMENT_THEORY":"SGP4","ELEMENT_SET_NO":"999","TIME_SYSTEM":"UTC","ECCENTRICITY":"0.00016920","APOAPSIS":"540.940","NORAD_CAT_ID":"51104","FILE":"3466271","PERIAPSIS":"538.599","COUNTRY_CODE":"US","BSTAR":"-0.00003548800000","MEAN_MOTION_DDOT":"0.0000000000000"}];
